CTC1_L_00517024-03
1 10186U 25623JP  26075.70037037  .00000000  00000+0  00000-0 0  9990
2 10186  97.7000 276.0000 0000000   0.0000 228.0000 14.98995063    13
CTC1_L_00517024-04
1 10187U 22829MZ  26075.70037037  .00000000  00000+0  00000-0 0  9996
2 10187  97.7000 276.0000 0000000   0.0000 273.0000 14.98995063    14
CTC1_L_00517024-05
1 10188U 22247OI  26075.70037037  .00000000  00000+0  00000-0 0  9991
2 10188  97.7000 276.0000 0000000   0.0000 318.0000 14.98995063    15
CTC1_L_00517024-06
1 10189U 23228VX  26075.70037037  .00000000  00000+0  00000-0 0  9992
2 10189  97.7000 276.0000 0000000   0.0000   3.0000 14.98995063    17
CTC1_L_00517024-07
1 10190U 25038CG  26075.70037037  .00000000  00000+0  00000-0 0  9995
2 10190  97.7000 276.0000 0000000   0.0000  48.0000 14.98995063    18
CTC1_L_00517024-08
1 10191U 26462FL  26075.70037037  .00000000  00000+0  00000-0 0  9998
2 10191  97.7000 276.0000 0000000   0.0000  93.0000 14.98995063    19
CTC1_L_00517025-01
1 10192U 26656UZ  26075.70037037  .00000000  00000+0  00000-0 0  9994
2 10192  97.7000 288.0000 0000000   0.0000 144.0000 14.98995063    10
CTC1_L_00517025-02
1 10193U 24618XW  26075.70037037  .00000000  00000+0  00000-0 0  9991
2 10193  97.7000 288.0000 0000000   0.0000 189.0000 14.98995063    10
CTC1_L_00517025-03
1 10194U 23613UT  26075.70037037  .00000000  00000+0  00000-0 0  9996
2 10194  97.7000 288.0000 0000000   0.0000 234.0000 14.98995063    12
CTC1_L_00517025-04
1 10195U 26673UO  26075.70037037  .00000000  00000+0  00000-0 0  9996
2 10195  97.7000 288.0000 0000000   0.0000 279.0000 14.98995063    12
CTC1_L_00517025-05
1 10196U 23706Y   26075.70037037  .00000000  00000+0  00000-0 0  9991
2 10196  97.7000 288.0000 0000000   0.0000 324.0000 14.98995063    14
CTC1_L_00517025-06
1 10197U 22997WY  26075.70037037  .00000000  00000+0  00000-0 0  9993
2 10197  97.7000 288.0000 0000000   0.0000   9.0000 14.98995063    15
CTC1_L_00517025-07
1 10198U 22898YP  26075.70037037  .00000000  00000+0  00000-0 0  9994
2 10198  97.7000 288.0000 0000000   0.0000  54.0000 14.98995063    16
CTC1_L_00517025-08
1 10199U 22059RT  26075.70037037  .00000000  00000+0  00000-0 0  9994
2 10199  97.7000 288.0000 0000000   0.0000  99.0000 14.98995063    16
CTC1_L_00517026-01
1 10200U 26054SN  26075.70037037  .00000000  00000+0  00000-0 0  9996
2 10200  97.7000 300.0000 0000000   0.0000 150.0000 14.98995063    12
CTC1_L_00517026-02
1 10201U 24579SS  26075.70037037  .00000000  00000+0  00000-0 0  9997
2 10201  97.7000 300.0000 0000000   0.0000 195.0000 14.98995063    12
CTC1_L_00517026-03
1 10202U 26841YO  26075.70037037  .00000000  00000+0  00000-0 0  9992
2 10202  97.7000 300.0000 0000000   0.0000 240.0000 14.98995063    14
CTC1_L_00517026-04
1 10203U 22049MD  26075.70037037  .00000000  00000+0  00000-0 0  9999
2 10203  97.7000 300.0000 0000000   0.0000 285.0000 14.98995063    14
CTC1_L_00517026-05
1 10204U 24810EM  26075.70037037  .00000000  00000+0  00000-0 0  9998
2 10204  97.7000 300.0000 0000000   0.0000 330.0000 14.98995063    16
CTC1_L_00517026-06
1 10205U 22401BX  26075.70037037  .00000000  00000+0  00000-0 0  9993
2 10205  97.7000 300.0000 0000000   0.0000  15.0000 14.98995063    17
CTC1_L_00517026-07
1 10206U 24857NI  26075.70037037  .00000000  00000+0  00000-0 0  9991
2 10206  97.7000 300.0000 0000000   0.0000  60.0000 14.98995063    18
CTC1_L_00517026-08
1 10207U 25088ZW  26075.70037037  .00000000  00000+0  00000-0 0  9999
2 10207  97.7000 300.0000 0000000   0.0000 105.0000 14.98995063    19
CTC1_L_00517027-01
1 10208U 26998PA  26075.70037037  .00000000  00000+0  00000-0 0  9991
2 10208  97.7000 312.0000 0000000   0.0000 156.0000 14.98995063    19
CTC1_L_00517027-02
1 10209U 24276PW  26075.70037037  .00000000  00000+0  00000-0 0  9999
2 10209  97.7000 312.0000 0000000   0.0000 201.0000 14.98995063    11
CTC1_L_00517027-03
1 10210U 25337NF  26075.70037037  .00000000  00000+0  00000-0 0  9990
2 10210  97.7000 312.0000 0000000   0.0000 246.0000 14.98995063    12
CTC1_L_00517027-04
1 10211U 23338ZI  26075.70037037  .00000000  00000+0  00000-0 0  9990
2 10211  97.7000 312.0000 0000000   0.0000 291.0000 14.98995063    13
CTC1_L_00517027-05
1 10212U 25349NY  26075.70037037  .00000000  00000+0  00000-0 0  9995
2 10212  97.7000 312.0000 0000000   0.0000 336.0000 14.98995063    14
CTC1_L_00517027-06
1 10213U 25203B   26075.70037037  .00000000  00000+0  00000-0 0  9995
2 10213  97.7000 312.0000 0000000   0.0000  21.0000 14.98995063    16
CTC1_L_00517027-07
1 10214U 22198QN  26075.70037037  .00000000  00000+0  00000-0 0  9996
2 10214  97.7000 312.0000 0000000   0.0000  66.0000 14.98995063    16
CTC1_L_00517027-08
1 10215U 23749YT  26075.70037037  .00000000  00000+0  00000-0 0  9990
2 10215  97.7000 312.0000 0000000   0.0000 111.0000 14.98995063    18
CTC1_L_00517028-01
1 10216U 25558VK  26075.70037037  .00000000  00000+0  00000-0 0  9991
2 10216  97.7000 324.0000 0000000   0.0000 162.0000 14.98995063    18
CTC1_L_00517028-02
1 10217U 24039LW  26075.70037037  .00000000  00000+0  00000-0 0  9995
2 10217  97.7000 324.0000 0000000   0.0000 207.0000 14.98995063    19
CTC1_L_00517028-03
1 10218U 25683KN  26075.70037037  .00000000  00000+0  00000-0 0  9992
2 10218  97.7000 324.0000 0000000   0.0000 252.0000 14.98995063    10
CTC1_L_00517028-04
1 10219U 26657BS  26075.70037037  .00000000  00000+0  00000-0 0  9995
2 10219  97.7000 324.0000 0000000   0.0000 297.0000 14.98995063    10
CTC1_L_00517028-05
1 10220U 23457NP  26075.70037037  .00000000  00000+0  00000-0 0  9992
2 10220  97.7000 324.0000 0000000   0.0000 342.0000 14.98995063    13
CTC1_L_00517028-06
1 10221U 22767GS  26075.70037037  .00000000  00000+0  00000-0 0  9996
2 10221  97.7000 324.0000 0000000   0.0000  27.0000 14.98995063    14
CTC1_L_00517028-07
1 10222U 25217IL  26075.70037037  .00000000  00000+0  00000-0 0  9990
2 10222  97.7000 324.0000 0000000   0.0000  72.0000 14.98995063    15
CTC1_L_00517028-08
1 10223U 22683TI  26075.70037037  .00000000  00000+0  00000-0 0  9995
2 10223  97.7000 324.0000 0000000   0.0000 117.0000 14.98995063    16
CTC1_L_00517029-01
1 10224U 26631RT  26075.70037037  .00000000  00000+0  00000-0 0  9993
2 10224  97.7000 336.0000 0000000   0.0000 168.0000 14.98995063    16
CTC1_L_00517029-02
1 10225U 26263KI  26075.70037037  .00000000  00000+0  00000-0 0  9995
2 10225  97.7000 336.0000 0000000   0.0000 213.0000 14.98995063    18
CTC1_L_00517029-03
1 10226U 22897QS  26075.70037037  .00000000  00000+0  00000-0 0  9995
2 10226  97.7000 336.0000 0000000   0.0000 258.0000 14.98995063    18
CTC1_L_00517029-04
1 10227U 23972OJ  26075.70037037  .00000000  00000+0  00000-0 0  9991
2 10227  97.7000 336.0000 0000000   0.0000 303.0000 14.98995063    10
CTC1_L_00517029-05
1 10228U 26351FJ  26075.70037037  .00000000  00000+0  00000-0 0  9996
2 10228  97.7000 336.0000 0000000   0.0000 348.0000 14.98995063    10
CTC1_L_00517029-06
1 10229U 26300M   26075.70037037  .00000000  00000+0  00000-0 0  9991
2 10229  97.7000 336.0000 0000000   0.0000  33.0000 14.98995063    12
CTC1_L_00517029-07
1 10230U 26600RW  26075.70037037  .00000000  00000+0  00000-0 0  9996
2 10230  97.7000 336.0000 0000000   0.0000  78.0000 14.98995063    13
CTC1_L_00517029-08
1 10231U 22916Z   26075.70037037  .00000000  00000+0  00000-0 0  9993
2 10231  97.7000 336.0000 0000000   0.0000 123.0000 14.98995063    15
CTC1_L_00517030-01
1 10232U 26335WJ  26075.70037037  .00000000  00000+0  00000-0 0  9993
2 10232  97.7000 348.0000 0000000   0.0000 174.0000 14.98995063    15
CTC1_L_00517030-02
1 10233U 24331JR  26075.70037037  .00000000  00000+0  00000-0 0  9998
2 10233  97.7000 348.0000 0000000   0.0000 219.0000 14.98995063    16
CTC1_L_00517030-03
1 10234U 26765WX  26075.70037037  .00000000  00000+0  00000-0 0  9992
2 10234  97.7000 348.0000 0000000   0.0000 264.0000 14.98995063    17
CTC1_L_00517030-04
1 10235U 24687BH  26075.70037037  .00000000  00000+0  00000-0 0  9994
2 10235  97.7000 348.0000 0000000   0.0000 309.0000 14.98995063    18
CTC1_L_00517030-05
1 10236U 26088WZ  26075.70037037  .00000000  00000+0  00000-0 0  9992
2 10236  97.7000 348.0000 0000000   0.0000 354.0000 14.98995063    19
CTC1_L_00517030-06
1 10237U 23748BR  26075.70037037  .00000000  00000+0  00000-0 0  9993
2 10237  97.7000 348.0000 0000000   0.0000  39.0000 14.98995063    10
CTC1_L_00517030-07
1 10238U 25029II  26075.70037037  .00000000  00000+0  00000-0 0  9998
2 10238  97.7000 348.0000 0000000   0.0000  84.0000 14.98995063    11
CTC1_L_00517030-08
1 10239U 24749ML  26075.70037037  .00000000  00000+0  00000-0 0  9997
2 10239  97.7000 348.0000 0000000   0.0000 129.0000 14.98995063    12
